{"fetched_at":"2026-03-29T16:36:15Z","count":15609,"tles":[{"name":"STARLINK-35812","line1":"1 66574U 25268T   26087.75791384  .00032510  00000+0  11846-2 0  9990","line2":"2 66574  43.0008 239.5806 0001676 262.6855  97.3806 15.27611135 20874","category":"Starlink"}]}