{
  "norad_id": 66574,
  "name": "STARLINK-35812",
  "history": [
    {
      "epoch": "2026-03-28T18:11:23.755776Z",
      "apogee_km": 484.10619906264856,
      "perigee_km": 481.80553740207233,
      "latitude_deg": -5.964250515171303e-06,
      "longitude_deg": 140.55784139969253,
      "height_km": 482.87930419711057,
      "semi_major_axis_km": 6861.09286823236,
      "eccentricity": 0.00016766,
      "inclination_deg": 43.0008,
      "raan_deg": 239.5806,
      "arg_perigee_deg": 262.6855,
      "mean_anomaly_deg": 97.3806,
      "mean_motion_rev_day": 15.27611135
    }
  ]
}